{"type": "FeatureCollection", "features": [ {"type": "Feature", "properties": {"norad_id": 66926, "name": "STARLINK-35942", "group": "last-30-days", "lat": -4.632800192283099, "lon": 21.814230744485425, "alt_km": 317.8759403141021, "timestamp": "2025-12-17T17:50:17.975209+00:00", "meta": {"OBJECT_NAME": "STARLINK-35942", "OBJECT_ID": "2025-286B", "EPOCH": "2025-12-17T06:00:00.999648", "MEAN_MOTION": 15.86350532, "ECCENTRICITY": 8.036e-05, "INCLINATION": 53.157, "RA_OF_ASC_NODE": 27.7882, "ARG_OF_PERICENTER": 88.9775, "MEAN_ANOMALY": 328.0005, "EPHEMERIS_TYPE": 0, "CLASSIFICATION_TYPE": "U", "NORAD_CAT_ID": 66926, "ELEMENT_SET_NO": 999, "REV_AT_EPOCH": 271, "BSTAR": -0.0054985768, "MEAN_MOTION_DOT": -0.01248676, "MEAN_MOTION_DDOT": 0}, "tle": {"line1": "1 66926U 25286B   25351.25001157 -.01248676  00000+0 -54986-2 0  9998", "line2": "2 66926  53.1570  27.7882 0000803  88.9775 328.0005 15.86350532  2717"}}, "geometry": {"type": "Point", "coordinates": [21.814230744485425, -4.632800192283099]}}, {"type": "Feature", "properties": {"norad_id": 66927, "name": "STARLINK-35943", "group": "last-30-days", "lat": -2.9875380421683952, "lon": 23.05092258961758, "alt_km": 317.53898223094075, "timestamp": "2025-12-17T17:50:17.975219+00:00", "meta": {"OBJECT_NAME": "STARLINK-35943", "OBJECT_ID": "2025-286C", "EPOCH": "2025-12-17T06:00:00.999648", "MEAN_MOTION": 15.86381459, "ECCENTRICITY": 7.702e-05, "INCLINATION": 53.1571, "RA_OF_ASC_NODE": 27.7842, "ARG_OF_PERICENTER": 84.2493, "MEAN_ANOMALY": 334.7374, "EPHEMERIS_TYPE": 0, "CLASSIFICATION_TYPE": "U", "NORAD_CAT_ID": 66927, "ELEMENT_SET_NO": 999, "REV_AT_EPOCH": 271, "BSTAR": -0.0055143272, "MEAN_MOTION_DOT": -0.01253522, "MEAN_MOTION_DDOT": 0}, "tle": {"line1": "1 66927U 25286C   25351.25001157 -.01253522  00000+0 -55143-2 0  9991", "line2": "2 66927  53.1571  27.7842 0000770  84.2493 334.7374 15.86381459  2719"}}, "geometry": {"type": "Point", "coordinates": [23.05092258961758, -2.9875380421683952]}}, {"type": "Feature", "properties": {"norad_id": 66928, "name": "STARLINK-35944", "group": "last-30-days", "lat": -6.309011063505102, "lon": 20.546858046952263, "alt_km": 318.1167656736234, "timestamp": "2025-12-17T17:50:17.975231+00:00", "meta": {"OBJECT_NAME": "STARLINK-35944", "OBJECT_ID": "2025-286D", "EPOCH": "2025-12-17T06:00:00.999648", "MEAN_MOTION": 15.86322572, "ECCENTRICITY": 7.347e-05, "INCLINATION": 53.1571, "RA_OF_ASC_NODE": 27.7925, "ARG_OF_PERICENTER": 84.7249, "MEAN_ANOMALY": 330.197, "EPHEMERIS_TYPE": 0, "CLASSIFICATION_TYPE": "U", "NORAD_CAT_ID": 66928, "ELEMENT_SET_NO": 999, "REV_AT_EPOCH": 271, "BSTAR": -0.00548588, "MEAN_MOTION_DOT": -0.01244556, "MEAN_MOTION_DDOT": 0}, "tle": {"line1": "1 66928U 25286D   25351.25001157 -.01244556  00000+0 -54859-2 0  9992", "line2": "2 66928  53.1571  27.7925 0000734  84.7249 330.1970 15.86322572  2719"}}, "geometry": {"type": "Point", "coordinates": [20.546858046952263, -6.309011063505102]}}, {"type": "Feature", "properties": {"norad_id": 66929, "name": "STARLINK-36169", "group": "last-30-days", "lat": -1.2066176787003196, "lon": 24.383922644485455, "alt_km": 317.14313909191605, "timestamp": "2025-12-17T17:50:17.975243+00:00", "meta": {"OBJECT_NAME": "STARLINK-36169", "OBJECT_ID": "2025-286E", "EPOCH": "2025-12-17T06:00:00.999648", "MEAN_MOTION": 15.86407405, "ECCENTRICITY": 9.077e-05, "INCLINATION": 53.157, "RA_OF_ASC_NODE": 27.7795, "ARG_OF_PERICENTER": 76.0669, "MEAN_ANOMALY": 345.1049, "EPHEMERIS_TYPE": 0, "CLASSIFICATION_TYPE": "U", "NORAD_CAT_ID": 66929, "ELEMENT_SET_NO": 999, "REV_AT_EPOCH": 271, "BSTAR": -0.0055228247, "MEAN_MOTION_DOT": -0.01256738, "MEAN_MOTION_DDOT": 0}, "tle": {"line1": "1 66929U 25286E   25351.25001157 -.01256738  00000+0 -55228-2 0  9999", "line2": "2 66929  53.1570  27.7795 0000907  76.0669 345.1049 15.86407405  2718"}}, "geometry": {"type": "Point", "coordinates": [24.383922644485455, -1.2066176787003196]}}, {"type": "Feature", "properties": {"norad_id": 66930, "name": "STARLINK-36206", "group": "last-30-days", "lat": 0.40607233202818044, "lon": 25.58891890665602, "alt_km": 316.89416609696036, "timestamp": "2025-12-17T17:50:17.975253+00:00", "meta": {"OBJECT_NAME": "STARLINK-36206", "OBJECT_ID": "2025-286F", "EPOCH": "2025-12-17T06:00:00.999648", "MEAN_MOTION": 15.86443565, "ECCENTRICITY": 8.243e-05, "INCLINATION": 53.157, "RA_OF_ASC_NODE": 27.7752, "ARG_OF_PERICENTER": 79.7826, "MEAN_ANOMALY": 343.351, "EPHEMERIS_TYPE": 0, "CLASSIFICATION_TYPE": "U", "NORAD_CAT_ID": 66930, "ELEMENT_SET_NO": 999, "REV_AT_EPOCH": 271, "BSTAR": -0.0055664678, "MEAN_MOTION_DOT": -0.01267479, "MEAN_MOTION_DDOT": 0}, "tle": {"line1": "1 66930U 25286F   25351.25001157 -.01267479  00000+0 -55665-2 0  9990", "line2": "2 66930  53.1570  27.7752 0000824  79.7826 343.3510 15.86443565  2716"}}, "geometry": {"type": "Point", "coordinates": [25.58891890665602, 0.40607233202818044]}}, {"type": "Feature", "properties": {"norad_id": 66931, "name": "STARLINK-36130", "group": "last-30-days", "lat": 2.233557400773714, "lon": 26.955693969693634, "alt_km": 316.5889833188485, "timestamp": "2025-12-17T17:50:17.975263+00:00", "meta": {"OBJECT_NAME": "STARLINK-36130", "OBJECT_ID": "2025-286G", "EPOCH": "2025-12-17T06:00:00.999648", "MEAN_MOTION": 15.86474845, "ECCENTRICITY": 8.348e-05, "INCLINATION": 53.1568, "RA_OF_ASC_NODE": 27.7707, "ARG_OF_PERICENTER": 81.2282, "MEAN_ANOMALY": 344.1452, "EPHEMERIS_TYPE": 0, "CLASSIFICATION_TYPE": "U", "NORAD_CAT_ID": 66931, "ELEMENT_SET_NO": 999, "REV_AT_EPOCH": 271, "BSTAR": -0.0056102725, "MEAN_MOTION_DOT": -0.01278044, "MEAN_MOTION_DDOT": 0}, "tle": {"line1": "1 66931U 25286G   25351.25001157 -.01278044  00000+0 -56103-2 0  9999", "line2": "2 66931  53.1568  27.7707 0000834  81.2282 344.1452 15.86474845  2718"}}, "geometry": {"type": "Point", "coordinates": [26.955693969693634, 2.233557400773714]}}, {"type": "Feature", "properties": {"norad_id": 66932, "name": "STARLINK-36177", "group": "last-30-days", "lat": 6.303802899975413, "lon": 30.02086437415765, "alt_km": 308.8320012830354, "timestamp": "2025-12-17T17:50:17.975276+00:00", "meta": {"OBJECT_NAME": "STARLINK-36177", "OBJECT_ID": "2025-286H", "EPOCH": "2025-12-17T06:00:00.999648", "MEAN_MOTION": 15.87043995, "ECCENTRICITY": 4.541e-05, "INCLINATION": 53.1571, "RA_OF_ASC_NODE": 27.7662, "ARG_OF_PERICENTER": 75.4797, "MEAN_ANOMALY": 352.2004, "EPHEMERIS_TYPE": 0, "CLASSIFICATION_TYPE": "U", "NORAD_CAT_ID": 66932, "ELEMENT_SET_NO": 999, "REV_AT_EPOCH": 271, "BSTAR": 0.0022677754, "MEAN_MOTION_DOT": 0.00645731, "MEAN_MOTION_DDOT": 0}, "tle": {"line1": "1 66932U 25286H   25351.25001157  .00645731  00000+0  22678-2 0  9998", "line2": "2 66932  53.1571  27.7662 0000454  75.4797 352.2004 15.87043995  2719"}}, "geometry": {"type": "Point", "coordinates": [30.02086437415765, 6.303802899975413]}}, {"type": "Feature", "properties": {"norad_id": 66933, "name": "STARLINK-36157", "group": "last-30-days", "lat": 5.766318239527144, "lon": 29.61320403510827, "alt_km": 315.9625967445045, "timestamp": "2025-12-17T17:50:17.975286+00:00", "meta": {"OBJECT_NAME": "STARLINK-36157", "OBJECT_ID": "2025-286J", "EPOCH": "2025-12-17T06:00:00.999648", "MEAN_MOTION": 15.86540458, "ECCENTRICITY": 8.924e-05, "INCLINATION": 53.1569, "RA_OF_ASC_NODE": 27.7617, "ARG_OF_PERICENTER": 78.7715, "MEAN_ANOMALY": 350.9448, "EPHEMERIS_TYPE": 0, "CLASSIFICATION_TYPE": "U", "NORAD_CAT_ID": 66933, "ELEMENT_SET_NO": 999, "REV_AT_EPOCH": 271, "BSTAR": -0.0057705716, "MEAN_MOTION_DOT": -0.0131397, "MEAN_MOTION_DDOT": 0}, "tle": {"line1": "1 66933U 25286J   25351.25001157 -.01313970  00000+0 -57706-2 0  9999", "line2": "2 66933  53.1569  27.7617 0000892  78.7715 350.9448 15.86540458  2711"}}, "geometry": {"type": "Point", "coordinates": [29.61320403510827, 5.766318239527144]}}, {"type": "Feature", "properties": {"norad_id": 66934, "name": "STARLINK-36153", "group": "last-30-days", "lat": 7.530815024521256, "lon": 30.954554886433954, "alt_km": 315.6663382905617, "timestamp": "2025-12-17T17:50:17.975298+00:00", "meta": {"OBJECT_NAME": "STARLINK-36153", "OBJECT_ID": "2025-286K", "EPOCH": "2025-12-17T06:00:00.999648", "MEAN_MOTION": 15.86572344, "ECCENTRICITY": 8.53e-05, "INCLINATION": 53.1569, "RA_OF_ASC_NODE": 27.7568, "ARG_OF_PERICENTER": 79.3536, "MEAN_ANOMALY": 352.5353, "EPHEMERIS_TYPE": 0, "CLASSIFICATION_TYPE": "U", "NORAD_CAT_ID": 66934, "ELEMENT_SET_NO": 999, "REV_AT_EPOCH": 271, "BSTAR": -0.0058392173, "MEAN_MOTION_DOT": -0.01329514, "MEAN_MOTION_DDOT": 0}, "tle": {"line1": "1 66934U 25286K   25351.25001157 -.01329514  00000+0 -58392-2 0  9993", "line2": "2 66934  53.1569  27.7568 0000853  79.3536 352.5353 15.86572344  2714"}}, "geometry": {"type": "Point", "coordinates": [30.954554886433954, 7.530815024521256]}}, {"type": "Feature", "properties": {"norad_id": 66935, "name": "STARLINK-36127", "group": "last-30-days", "lat": 9.484318183753572, "lon": 32.45690476033046, "alt_km": 315.3959857174468, "timestamp": "2025-12-17T17:50:17.975310+00:00", "meta": {"OBJECT_NAME": "STARLINK-36127", "OBJECT_ID": "2025-286L", "EPOCH": "2025-12-17T06:00:00.999648", "MEAN_MOTION": 15.86603962, "ECCENTRICITY": 8.828e-05, "INCLINATION": 53.1568, "RA_OF_ASC_NODE": 27.7519, "ARG_OF_PERICENTER": 82.3397, "MEAN_ANOMALY": 351.9833, "EPHEMERIS_TYPE": 0, "CLASSIFICATION_TYPE": "U", "NORAD_CAT_ID": 66935, "ELEMENT_SET_NO": 999, "REV_AT_EPOCH": 271, "BSTAR": -0.0059864946, "MEAN_MOTION_DOT": -0.01360733, "MEAN_MOTION_DDOT": 0}, "tle": {"line1": "1 66935U 25286L   25351.25001157 -.01360733  00000+0 -59865-2 0  9998", "line2": "2 66935  53.1568  27.7519 0000882  82.3397 351.9833 15.86603962  2718"}}, "geometry": {"type": "Point", "coordinates": [32.45690476033046, 9.484318183753572]}}]}